[{"OBJECT_NAME":"STARLINK-33633","OBJECT_ID":"2025-063V","EPOCH":"2026-01-22T08:00:01.999872","MEAN_MOTION":15.38892005,"ECCENTRICITY":0.00016016,"INCLINATION":53.16,"RA_OF_ASC_NODE":262.5089,"ARG_OF_PERICENTER":187.632,"MEAN_ANOMALY":280.7894,"EPHEMERIS_TYPE":0,"CLASSIFICATION_TYPE":"U","NORAD_CAT_ID":63382,"ELEMENT_SET_NO":999,"REV_AT_EPOCH":579,"BSTAR":0.0028513083,"MEAN_MOTION_DOT":0.00112624,"MEAN_MOTION_DDOT":0},{"OBJECT_NAME":"STARLINK-33748","OBJECT_ID":"2025-063W","EPOCH":"2026-01-22T02:00:51.109632","MEAN_MOTION":15.30211534,"ECCENTRICITY":0.00011191,"INCLINATION":53.1567,"RA_OF_ASC_NODE":279.6098,"ARG_OF_PERICENTER":77.9085,"MEAN_ANOMALY":282.2041,"EPHEMERIS_TYPE":0,"CLASSIFICATION_TYPE":"U","NORAD_CAT_ID":63383,"ELEMENT_SET_NO":999,"REV_AT_EPOCH":4747,"BSTAR":0.0010885175,"MEAN_MOTION_DOT":0.0003203,"MEAN_MOTION_DDOT":0},{"OBJECT_NAME":"STARLINK-33658","OBJECT_ID":"2025-063X","EPOCH":"2026-01-22T02:17:31.264800","MEAN_MOTION":15.30159926,"ECCENTRICITY":0.00017237,"INCLINATION":53.1578,"RA_OF_ASC_NODE":269.0296,"ARG_OF_PERICENTER":74.8807,"MEAN_ANOMALY":285.2385,"EPHEMERIS_TYPE":0,"CLASSIFICATION_TYPE":"U","NORAD_CAT_ID":63384,"ELEMENT_SET_NO":999,"REV_AT_EPOCH":4762,"BSTAR":0.0016032598,"MEAN_MOTION_DOT":0.00047369,"MEAN_MOTION_DDOT":0},{"OBJECT_NAME":"STARLINK-33616","OBJECT_ID":"2025-063Y","EPOCH":"2026-01-21T21:15:38.680704","MEAN_MOTION":15.3021737,"ECCENTRICITY":0.00027579,"INCLINATION":53.159,"RA_OF_ASC_NODE":280.512,"ARG_OF_PERICENTER":154.5976,"MEAN_ANOMALY":205.5161,"EPHEMERIS_TYPE":0,"CLASSIFICATION_TYPE":"U","NORAD_CAT_ID":63385,"ELEMENT_SET_NO":999,"REV_AT_EPOCH":4739,"BSTAR":0.0016076978,"MEAN_MOTION_DOT":0.0004759,"MEAN_MOTION_DDOT":0},{"OBJECT_NAME":"STARLINK-33571","OBJECT_ID":"2025-063Z","EPOCH":"2026-01-22T04:44:37.885344","MEAN_MOTION":15.30134682,"ECCENTRICITY":0.00010396,"INCLINATION":53.1567,"RA_OF_ASC_NODE":278.8795,"ARG_OF_PERICENTER":55.7556,"MEAN_ANOMALY":304.3543,"EPHEMERIS_TYPE":0,"CLASSIFICATION_TYPE":"U","NORAD_CAT_ID":63386,"ELEMENT_SET_NO":999,"REV_AT_EPOCH":4744,"BSTAR":0.0014900134,"MEAN_MOTION_DOT":0.00043943,"MEAN_MOTION_DDOT":0},{"OBJECT_NAME":"STARLINK-33533","OBJECT_ID":"2025-063AA","EPOCH":"2026-01-22T01:08:22.483680","MEAN_MOTION":15.30167022,"ECCENTRICITY":0.00012181,"INCLINATION":53.157,"RA_OF_ASC_NODE":266.6049,"ARG_OF_PERICENTER":123.8725,"MEAN_ANOMALY":236.2392,"EPHEMERIS_TYPE":0,"CLASSIFICATION_TYPE":"U","NORAD_CAT_ID":63387,"ELEMENT_SET_NO":999,"REV_AT_EPOCH":4760,"BSTAR":0.0011982207,"MEAN_MOTION_DOT":0.00035261,"MEAN_MOTION_DDOT":0},{"OBJECT_NAME":"STARLINK-33629","OBJECT_ID":"2025-063AB","EPOCH":"2026-01-22T01:22:02.149248","MEAN_MOTION":15.30218897,"ECCENTRICITY":0.00014798,"INCLINATION":53.1577,"RA_OF_ASC_NODE":266.6598,"ARG_OF_PERICENTER":115.435,"MEAN_ANOMALY":244.6804,"EPHEMERIS_TYPE":0,"CLASSIFICATION_TYPE":"U","NORAD_CAT_ID":63388,"ELEMENT_SET_NO":999,"REV_AT_EPOCH":4765,"BSTAR":0.0011858037,"MEAN_MOTION_DOT":0.00034947,"MEAN_MOTION_DDOT":0},{"OBJECT_NAME":"STARLINK-33656","OBJECT_ID":"2025-063AC","EPOCH":"2026-01-22T02:03:50.190912","MEAN_MOTION":15.30202523,"ECCENTRICITY":0.00020816,"INCLINATION":53.1589,"RA_OF_ASC_NODE":268.9663,"ARG_OF_PERICENTER":92.7601,"MEAN_ANOMALY":267.3638,"EPHEMERIS_TYPE":0,"CLASSIFICATION_TYPE":"U","NORAD_CAT_ID":63389,"ELEMENT_SET_NO":999,"REV_AT_EPOCH":4762,"BSTAR":0.0012345434,"MEAN_MOTION_DOT":0.00036387,"MEAN_MOTION_DDOT":0},{"OBJECT_NAME":"STARLINK-33531","OBJECT_ID":"2025-065A","EPOCH":"2026-01-22T06:48:08.240544","MEAN_MOTION":15.27605979,"ECCENTRICITY":0.00012292,"INCLINATION":43.0018,"RA_OF_ASC_NODE":9.084,"ARG_OF_PERICENTER":286.3214,"MEAN_ANOMALY":73.7502,"EPHEMERIS_TYPE":0,"CLASSIFICATION_TYPE":"U","NORAD_CAT_ID":63399,"ELEMENT_SET_NO":999,"REV_AT_EPOCH":4574,"BSTAR":0.0023330685,"MEAN_MOTION_DOT":0.00064554,"MEAN_MOTION_DDOT":0},{"OBJECT_NAME":"STARLINK-33652","OBJECT_ID":"2025-065B","EPOCH":"2026-01-22T06:11:05.888256","MEAN_MOTION":15.27590297,"ECCENTRICITY":0.0001837,"INCLINATION":42.9983,"RA_OF_ASC_NODE":8.8816,"ARG_OF_PERICENTER":258.5507,"MEAN_ANOMALY":101.5139,"EPHEMERIS_TYPE":0,"CLASSIFICATION_TYPE":"U","NORAD_CAT_ID":63400,"ELEMENT_SET_NO":999,"REV_AT_EPOCH":4574,"BSTAR":0.0014417073,"MEAN_MOTION_DOT":0.00039637,"MEAN_MOTION_DDOT":0},{"OBJECT_NAME":"STARLINK-33707","OBJECT_ID":"2025-065C","EPOCH":"2026-01-22T06:42:34.156800","MEAN_MOTION":15.27605744,"ECCENTRICITY":0.00016306,"INCLINATION":43.0039,"RA_OF_ASC_NODE":9.0543,"ARG_OF_PERICENTER":282.8101,"MEAN_ANOMALY":77.2569,"EPHEMERIS_TYPE":0,"CLASSIFICATION_TYPE":"U","NORAD_CAT_ID":63401,"ELEMENT_SET_NO":999,"REV_AT_EPOCH":4574,"BSTAR":0.0014763093,"MEAN_MOTION_DOT":0.00040619,"MEAN_MOTION_DDOT":0},{"OBJECT_NAME":"STARLINK-33668","OBJECT_ID":"2025-065D","EPOCH":"2026-01-22T07:08:28.996512","MEAN_MOTION":15.27615064,"ECCENTRICITY":0.0001505,"INCLINATION":43.001,"RA_OF_ASC_NODE":9.1845,"ARG_OF_PERICENTER":287.9188,"MEAN_ANOMALY":72.1499,"EPHEMERIS_TYPE":0,"CLASSIFICATION_TYPE":"U","NORAD_CAT_ID":63402,"ELEMENT_SET_NO":999,"REV_AT_EPOCH":4574,"BSTAR":0.0022514444,"MEAN_MOTION_DOT":0.00062284,"MEAN_MOTION_DDOT":0},{"OBJECT_NAME":"STARLINK-33676","OBJECT_ID":"2025-065E","EPOCH":"2026-01-22T06:40:44.202432","MEAN_MOTION":15.27556656,"ECCENTRICITY":0.00010997,"INCLINATION":43.0029,"RA_OF_ASC_NODE":9.0422,"ARG_OF_PERICENTER":266.3983,"MEAN_ANOMALY":93.6743,"EPHEMERIS_TYPE":0,"CLASSIFICATION_TYPE":"U","NORAD_CAT_ID":63403,"ELEMENT_SET_NO":999,"REV_AT_EPOCH":4574,"BSTAR":0.00094848039,"MEAN_MOTION_DOT":0.00025911,"MEAN_MOTION_DDOT":0},{"OBJECT_NAME":"STARLINK-33711","OBJECT_ID":"2025-065F","EPOCH":"2026-01-22T06:09:16.774560","MEAN_MOTION":15.27596483,"ECCENTRICITY":0.00018249,"INCLINATION":43.0029,"RA_OF_ASC_NODE":8.8756,"ARG_OF_PERICENTER":270.5227,"MEAN_ANOMALY":89.5415,"EPHEMERIS_TYPE":0,"CLASSIFICATION_TYPE":"U","NORAD_CAT_ID":63404,"ELEMENT_SET_NO":999,"REV_AT_EPOCH":4574,"BSTAR":0.001604376,"MEAN_MOTION_DOT":0.00044174,"MEAN_MOTION_DDOT":0},{"OBJECT_NAME":"STARLINK-33708","OBJECT_ID":"2025-065G","EPOCH":"2026-01-22T06:46:16.853664","MEAN_MOTION":15.2762111,"ECCENTRICITY":0.00015701,"INCLINATION":43.0036,"RA_OF_ASC_NODE":9.0665,"ARG_OF_PERICENTER":277.4076,"MEAN_ANOMALY":82.6598,"EPHEMERIS_TYPE":0,"CLASSIFICATION_TYPE":"U","NORAD_CAT_ID":63405,"ELEMENT_SET_NO":999,"REV_AT_EPOCH":4574,"BSTAR":0.0025042957,"MEAN_MOTION_DOT":0.00069389,"MEAN_MOTION_DDOT":0},{"OBJECT_NAME":"STARLINK-33690","OBJECT_ID":"2025-065H","EPOCH":"2026-01-22T07:36:43.821504","MEAN_MOTION":15.27592995,"ECCENTRICITY":0.00016128,"INCLINATION":43.0029,"RA_OF_ASC_NODE":5.0095,"ARG_OF_PERICENTER":265.1844,"MEAN_ANOMALY":94.8823,"EPHEMERIS_TYPE":0,"CLASSIFICATION_TYPE":"U","NORAD_CAT_ID":63406,"ELEMENT_SET_NO":999,"REV_AT_EPOCH":4579,"BSTAR":0.0015797425,"MEAN_MOTION_DOT":0.00043483,"MEAN_MOTION_DDOT":0},{"OBJECT_NAME":"STARLINK-33694","OBJECT_ID":"2025-065J","EPOCH":"2026-01-22T00:18:33.396192","MEAN_MOTION":15.27557788,"ECCENTRICITY":0.00026303,"INCLINATION":43.0055,"RA_OF_ASC_NODE":10.4798,"ARG_OF_PERICENTER":266.128,"MEAN_ANOMALY":93.9271,"EPHEMERIS_TYPE":0,"CLASSIFICATION_TYPE":"U","NORAD_CAT_ID":63407,"ELEMENT_SET_NO":999,"REV_AT_EPOCH":4570,"BSTAR":0.0012859673,"MEAN_MOTION_DOT":0.00035272,"MEAN_MOTION_DDOT":0},{"OBJECT_NAME":"STARLINK-33692","OBJECT_ID":"2025-065K","EPOCH":"2026-01-22T07:37:23.556000","MEAN_MOTION":15.27549274,"ECCENTRICITY":0.00012825,"INCLINATION":43.0011,"RA_OF_ASC_NODE":12.7871,"ARG_OF_PERICENTER":269.8626,"MEAN_ANOMALY":90.2079,"EPHEMERIS_TYPE":0,"CLASSIFICATION_TYPE":"U","NORAD_CAT_ID":63408,"ELEMENT_SET_NO":999,"REV_AT_EPOCH":4570,"BSTAR":0.001766238,"MEAN_MOTION_DOT":0.00048616,"MEAN_MOTION_DDOT":0},{"OBJECT_NAME":"STARLINK-33693","OBJECT_ID":"2025-065L","EPOCH":"2026-01-22T07:01:05.092320","MEAN_MOTION":15.27606838,"ECCENTRICITY":0.00014216,"INCLINATION":43.0025,"RA_OF_ASC_NODE":9.1369,"ARG_OF_PERICENTER":260.1734,"MEAN_ANOMALY":99.8958,"EPHEMERIS_TYPE":0,"CLASSIFICATION_TYPE":"U","NORAD_CAT_ID":63409,"ELEMENT_SET_NO":999,"REV_AT_EPOCH":4574,"BSTAR":0.002155004,"MEAN_MOTION_DOT":0.00059568,"MEAN_MOTION_DDOT":0},{"OBJECT_NAME":"STARLINK-33677","OBJECT_ID":"2025-065M","EPOCH":"2026-01-22T06:49:59.010528","MEAN_MOTION":15.27575507,"ECCENTRICITY":0.00018139,"INCLINATION":43.0055,"RA_OF_ASC_NODE":9.0796,"ARG_OF_PERICENTER":256.2725,"MEAN_ANOMALY":103.7925,"EPHEMERIS_TYPE":0,"CLASSIFICATION_TYPE":"U","NORAD_CAT_ID":63410,"ELEMENT_SET_NO":999,"REV_AT_EPOCH":4574,"BSTAR":0.0018352078,"MEAN_MOTION_DOT":0.00050579,"MEAN_MOTION_DDOT":0},{"OBJECT_NAME":"STARLINK-33647","OBJECT_ID":"2025-065N","EPOCH":"2026-01-22T06:24:44.853120","MEAN_MOTION":15.2755503,"ECCENTRICITY":0.00013446,"INCLINATION":42.9995,"RA_OF_ASC_NODE":16.7398,"ARG_OF_PERICENTER":268.7027,"MEAN_ANOMALY":91.367,"EPHEMERIS_TYPE":0,"CLASSIFICATION_TYPE":"U","NORAD_CAT_ID":63411,"ELEMENT_SET_NO":999,"REV_AT_EPOCH":4565,"BSTAR":0.0011571678,"MEAN_MOTION_DOT":0.00031693,"MEAN_MOTION_DDOT":0},{"OBJECT_NAME":"STARLINK-33645","OBJECT_ID":"2025-065P","EPOCH":"2026-01-22T06:38:09.907584","MEAN_MOTION":15.27613324,"ECCENTRICITY":0.00017654,"INCLINATION":43.007,"RA_OF_ASC_NODE":12.4116,"ARG_OF_PERICENTER":265.1158,"MEAN_ANOMALY":94.9492,"EPHEMERIS_TYPE":0,"CLASSIFICATION_TYPE":"U","NORAD_CAT_ID":63412,"ELEMENT_SET_NO":999,"REV_AT_EPOCH":4570,"BSTAR":0.0024120124,"MEAN_MOTION_DOT":0.00066782,"MEAN_MOTION_DDOT":0},{"OBJECT_NAME":"STARLINK-33670","OBJECT_ID":"2025-065Q","EPOCH":"2026-01-22T06:44:23.978976","MEAN_MOTION":15.27641279,"ECCENTRICITY":0.000229,"INCLINATION":43.0055,"RA_OF_ASC_NODE":9.018,"ARG_OF_PERICENTER":269.1288,"MEAN_ANOMALY":90.9301,"EPHEMERIS_TYPE":0,"CLASSIFICATION_TYPE":"U","NORAD_CAT_ID":63413,"ELEMENT_SET_NO":999,"REV_AT_EPOCH":4574,"BSTAR":0.002436523,"MEAN_MOTION_DOT":0.0006753,"MEAN_MOTION_DDOT":0}]
